[{"OBJECT_NAME":"SATELIOT_1","OBJECT_ID":"2024-149CL","EPOCH":"2026-03-09T18:08:18.068352","MEAN_MOTION":14.97604186,"ECCENTRICITY":0.00077489,"INCLINATION":97.6798,"RA_OF_ASC_NODE":146.3176,"ARG_OF_PERICENTER":58.9869,"MEAN_ANOMALY":301.2113,"EPHEMERIS_TYPE":0,"CLASSIFICATION_TYPE":"U","NORAD_CAT_ID":60550,"ELEMENT_SET_NO":999,"REV_AT_EPOCH":8518,"BSTAR":0.00029754021,"MEAN_MOTION_DOT":3.421e-5,"MEAN_MOTION_DDOT":0},{"OBJECT_NAME":"STARLINK-34383","OBJECT_ID":"2025-123Q","EPOCH":"2026-03-09T18:12:47.031552","MEAN_MOTION":14.98337644,"ECCENTRICITY":0.00032135,"INCLINATION":70.002,"RA_OF_ASC_NODE":194.4863,"ARG_OF_PERICENTER":268.2576,"MEAN_ANOMALY":91.8215,"EPHEMERIS_TYPE":0,"CLASSIFICATION_TYPE":"U","NORAD_CAT_ID":64305,"ELEMENT_SET_NO":999,"REV_AT_EPOCH":4162,"BSTAR":0.00036699534,"MEAN_MOTION_DOT":4.29e-5,"MEAN_MOTION_DDOT":0}]
